{
    "links": {
        "self": "http://www.neowsapp.com/rest/v1/neo/3744319?api_key=iIulBulltgU6a56xZRHN4H3l9WmuAYTsLGpBGhQ2"
    },
    "id": "3744319",
    "neo_reference_id": "3744319",
    "name": "(2016 CW247)",
    "designation": "2016 CW247",
    "nasa_jpl_url": "http://ssd.jpl.nasa.gov/sbdb.cgi?sstr=3744319",
    "absolute_magnitude_h": 22.3,
    "estimated_diameter": {
        "kilometers": {
            "estimated_diameter_min": 0.0921626549,
            "estimated_diameter_max": 0.2060819612
        },
        "meters": {
            "estimated_diameter_min": 92.1626548503,
            "estimated_diameter_max": 206.0819612321
        },
        "miles": {
            "estimated_diameter_min": 0.057267201,
            "estimated_diameter_max": 0.1280533543
        },
        "feet": {
            "estimated_diameter_min": 302.370924539,
            "estimated_diameter_max": 676.1219416887
        }
    },
    "is_potentially_hazardous_asteroid": false,
    "close_approach_data": [
        {
            "close_approach_date": "1987-02-08",
            "close_approach_date_full": "1987-Feb-08 12:45",
            "epoch_date_close_approach": 539786700000,
            "relative_velocity": {
                "kilometers_per_second": "29.7151604621",
                "kilometers_per_hour": "106974.577663628",
                "miles_per_hour": "66469.8424377138"
            },
            "miss_distance": {
                "astronomical": "0.456401378",
                "lunar": "177.540136042",
                "kilometers": "68276674.01386486",
                "miles": "42425157.951500668"
            },
            "orbiting_body": "Earth"
        },
        {
            "close_approach_date": "2013-10-10",
            "close_approach_date_full": "2013-Oct-10 23:38",
            "epoch_date_close_approach": 1381448280000,
            "relative_velocity": {
                "kilometers_per_second": "15.1726292183",
                "kilometers_per_hour": "54621.4651858757",
                "miles_per_hour": "33939.6542984126"
            },
            "miss_distance": {
                "astronomical": "0.0467632221",
                "lunar": "18.1908933969",
                "kilometers": "6995678.420496927",
                "miles": "4346913.0014625126"
            },
            "orbiting_body": "Mars"
        },
        {
            "close_approach_date": "2016-04-10",
            "close_approach_date_full": "2016-Apr-10 21:55",
            "epoch_date_close_approach": 1460325300000,
            "relative_velocity": {
                "kilometers_per_second": "11.8882773194",
                "kilometers_per_hour": "42797.7983497572",
                "miles_per_hour": "26592.8875357144"
            },
            "miss_distance": {
                "astronomical": "0.2723598737",
                "lunar": "105.9479908693",
                "kilometers": "40744456.978989019",
                "miles": "25317431.5818417022"
            },
            "orbiting_body": "Earth"
        }
    ],
    "orbital_data": {
        "orbit_id": "5",
        "orbit_determination_date": "2017-04-06 08:28:13",
        "first_observation_date": "2016-02-10",
        "last_observation_date": "2016-02-26",
        "data_arc_in_days": 16,
        "observations_used": 22,
        "orbit_uncertainty": "7",
        "minimum_orbit_intersection": ".010695",
        "jupiter_tisserand_invariant": "3.965",
        "epoch_osculation": "2459000.5",
        "eccentricity": ".570697171572631",
        "semi_major_axis": "1.712509980181227",
        "inclination": "10.55557201548179",
        "ascending_node_longitude": "310.603492954087",
        "orbital_period": "818.5554296326646",
        "perihelion_distance": ".7351853782018983",
        "perihelion_argument": "287.6415771201152",
        "aphelion_distance": "2.689834582160556",
        "perihelion_time": "2459151.754004174391",
        "mean_anomaly": "293.478614237259",
        "mean_motion": ".4397991717696549",
        "equinox": "J2000",
        "orbit_class": {
            "orbit_class_type": "APO",
            "orbit_class_description": "Near-Earth asteroid orbits which cross the Earth’s orbit similar to that of 1862 Apollo",
            "orbit_class_range": "a (semi-major axis) > 1.0 AU; q (perihelion) < 1.017 AU"
        }
    },
    "is_sentry_object": false
}